157P/Tritton,e,12.4241,287.4992,155.1732,3.547907,0.1474843,0.55681572,140.2365,04/18.0/2025,2000,g 10.0,4.0
# From MPEC 2022-VC5
157P-B/Tritton,e,12.4251,153.8843,287.2028,3.102713,0.1803398,0.49990695,171.7949,04/18.0/2025,2000,g 15.7,4.0
# From MPC182888
158P/Kowal-LINEAR,e,7.4319,124.5788,227.9955,5.671850,0.0729654,0.11775692,70.5765,04/18.0/2025,2000,g  9.0,4.0
# From MPEC 2024-DC6
159P/LONEOS,e,23.4847,54.9391,4.7204,5.854931,0.0695699,0.38259612,175.2352,04/18.0/2025,2000,g 10.0,4.0
# From MPEC 2022-K19
160P/LINEAR,e,15.5955,333.3513,12.7828,3.779539,0.1341361,0.52504248,263.5290,04/18.0/2025,2000,g 15.5,2.0
# From MPC 75721
161P/Hartley-IRAS,e,95.8180,1.5175,47.0689,7.714930,0.0459945,0.83580692,332.9101,04/18.0/2025,2000,g  8.5,6.0
# From MPEC 2025-A40
162P/SidingSpring,e,27.5543,30.8782,357.2357,3.091877,0.1812888,0.58295516,288.4247,04/18.0/2025,2000,g 12.0,4.0
# From MPEC 2021-S45
163P/NEAT,e,12.7212,102.0728,349.6284,3.761243,0.1351161,0.45347401,280.9699,04/18.0/2025,2000,g 14.5,4.0
# From MPEC 2024-TD8
164P/Christensen,e,16.2774,88.2691,325.9543,3.651366,0.1412606,0.54124056,354.4334,04/18.0/2025,2000,g 11.0,4.0
# From MPC 75721
165P/LINEAR,e,15.9075,0.6885,125.8639,17.81433,0.0131084,0.61915356,118.9640,04/18.0/2025,2000,g 11.5,2.0
# From MPC 75722
166P/NEAT,e,15.3784,64.4362,321.8453,13.84000,0.0191426,0.38303623,159.8512,04/18.0/2025,2000,g  5.5,4.0
# From MPEC 2023-J29
167P/CINEOS,e,19.0759,295.8339,344.4798,16.25295,0.0150420,0.26785262,132.1603,04/18.0/2025,2000,g  9.5,2.0
# From MPEC 2023-J29
168P/Hergenrother,e,21.5953,355.3912,15.0994,3.586753,0.1450948,0.62129016,301.4923,04/18.0/2025,2000,g 15.5,4.0
# From MPEC 2023-J95
169P/NEAT,e,11.2874,176.0618,218.1187,2.603609,0.2346067,0.76807178,237.6967,04/18.0/2025,2000,g 16.0,2.0
# From MPEC 2025-GB9
170P/Christensen,e,10.1278,142.6403,224.7824,4.195407,0.1146946,0.30523358,84.0855,04/18.0/2025,2000,g 12.0,4.0
# From MPC102102
171P/Spahr,e,21.9507,101.7005,347.0926,3.551944,0.1472329,0.50272700,336.4347,04/18.0/2025,2000,g 13.5,4.0
# From MPEC 2025-GB9
172P/Yeung,e,11.2234,30.8826,208.9024,4.223269,0.1135615,0.20485162,337.4503,04/18.0/2025,2000,g 13.0,4.0
# From MPEC 2023-N01
173P/Mueller,e,16.4933,100.3463,29.2784,5.715272,0.0721354,0.26234949,87.8087,04/18.0/2025,2000,g  7.5,4.0
# From MPC 92985
174P/Echeclus,e,4.3411,173.3351,163.4370,10.75896,0.0279286,0.45494624,101.9512,04/18.0/2025,2000,g  9.4,2.0
# From MPC114608
175P/Hergenrother,e,4.9258,109.8296,74.7436,3.689722,0.1390636,0.37635094,290.0494,04/18.0/2025,2000,g 14.0,4.0
# From MPC 89015
176P/LINEAR,e,0.2312,345.6343,34.4709,3.195230,0.1725642,0.19187414,151.8755,04/18.0/2025,2000,g 15.1,2.0
# From MPEC 2020-L06
177P/Barnard,e,31.0076,271.8650,60.7521,24.51185,0.0081216,0.95427817,55.2691,04/18.0/2025,2000,g 15.0,4.0
# From MPEC 2024-R10
178P/Hug-Bell,e,11.0924,102.7850,297.9609,3.632809,0.1423444,0.48231636,246.9281,04/18.0/2025,2000,g 13.5,4.0
# From MPEC 2024-EF7
179P/Jedicke,e,19.8902,115.5088,297.2077,5.936985,0.0681326,0.30547949,71.6837,04/18.0/2025,2000,g  2.5,8.0
# From MPEC 2024-F34
180P/NEAT,e,16.8620,84.5594,94.6067,3.867866,0.1295678,0.35379710,83.6852,04/18.0/2025,2000,g 11.0,4.0
# From MPC 89012
181P/Shoemaker-Levy,e,17.4756,35.4384,336.2944,3.879027,0.1290090,0.69985281,154.2497,04/18.0/2025,2000,g 11.5,4.0
# From MPEC 2024-UQ8
182P/LONEOS,e,16.2312,72.4572,54.2040,2.948816,0.1946402,0.66390956,208.4960,04/18.0/2025,2000,g 18.0,4.0
# From MPEC 2024-VJ2
183P/Korlevic-Juric,e,18.7333,3.5909,162.9189,4.705862,0.0965484,0.10260732,274.6930,04/18.0/2025,2000,g 12.5,2.0
# From MPEC 2020-W26
184P/Lovas,e,4.5703,173.2689,186.5631,3.800635,0.1330209,0.54986332,217.5651,04/18.0/2025,2000,g 13.5,4.0
# From MPEC 2024-F91
185P/Petriew,e,14.0106,214.1218,181.9190,3.099609,0.1806108,0.69945294,116.5279,04/18.0/2025,2000,g 15.0,4.0
# From MPEC 2022-X67
186P/Garradd,e,28.6471,325.9169,268.5826,4.854779,0.0921403,0.12393907,213.3990,04/18.0/2025,2000,g  7.5,4.0
# From MPEC 2020-SI8
187P/LINEAR,e,13.6658,109.8434,131.5404,4.551852,0.1014897,0.15587835,256.3242,04/18.0/2025,2000,g  9.0,4.0
# From MPEC 2023-J29
188P/LINEAR-Mueller,e,10.5245,358.9154,26.8233,4.365443,0.1080592,0.41673206,321.0717,04/18.0/2025,2000,g 11.5,4.0
# From MPEC 2022-QD9
189P/NEAT,e,20.1175,281.6818,16.1870,2.940397,0.1954768,0.59036025,188.2067,04/18.0/2025,2000,g 19.0,4.0
# From MPC182889
190P/Mueller,e,2.1746,335.4875,50.5396,4.229331,0.1133174,0.52250368,13.0151,04/18.0/2025,2000,g 13.0,4.0
# From MPEC 2024-TD8
191P/McNaught,e,8.8395,98.1792,284.2691,3.640745,0.1418792,0.38518998,211.3693,04/18.0/2025,2000,g 13.0,4.0
# From MPC182889
192P/Shoemaker-Levy,e,24.5816,51.5913,313.0496,6.458470,0.0600495,0.77343172,19.7253,04/18.0/2025,2000,g 15.0,4.0
# From MPEC 2024-R10
193P/LINEAR-NEAT,e,10.6795,335.1866,8.1211,3.579416,0.1455412,0.39264217,194.0174,04/18.0/2025,2000,g 14.0,4.0
# From MPEC 2024-GJ3
194P/LINEAR,e,11.8037,349.5142,128.6105,4.122531,0.1177492,0.56338365,51.6555,04/18.0/2025,2000,g 16.0,4.0
# From MPEC 2025-H10
195P/Hill,e,36.4178,243.1018,250.5759,6.446592,0.0602156,0.31116658,353.4105,04/18.0/2025,2000,g  8.5,4.0
# From MPEC 2024-GJ3
196P/Tichy,e,19.2958,24.1236,12.1345,3.806108,0.1327341,0.42758233,119.6961,04/18.0/2025,2000,g 13.5,4.0
# From MPEC 2023-UR6
197P/LINEAR,e,25.3762,66.2219,189.9220,2.906214,0.1989357,0.62011578,171.8486,04/18.0/2025,2000,g 16.5,2.0
# From MPEC 2024-VJ2
198P/ODAS,e,1.3400,358.4692,69.0493,3.591837,0.1447868,0.44462558,335.0801,04/18.0/2025,2000,g 12.5,4.0
# From MPEC 2024-Q20
199P/Shoemaker,e,24.9391,92.3447,191.7640,5.874124,0.0692292,0.50446822,42.8949,04/18.0/2025,2000,g 10.0,4.0
# From MPEC 2022-C56
200P/Larsen,e,12.0954,234.8091,134.3883,4.952969,0.0894140,0.33125306,186.8849,04/18.0/2025,2000,g  9.0,4.0
# From MPC 93588
201P/LONEOS,e,5.7374,41.5276,19.7985,3.354664,0.1604096,0.63753068,227.9678,04/18.0/2025,2000,g 14.0,4.0
# From MPC182889
202P/Scotti,e,2.1418,177.3008,274.4965,4.099335,0.1187501,0.25112613,39.8632,04/18.0/2025,2000,g 13.5,4.0
# From MPEC 2025-A40
203P/Korlevic,e,2.9759,290.2226,154.9282,4.668462,0.0977110,0.31639131,182.4892,04/18.0/2025,2000,g 14.5,2.0
# From MPEC 2024-JU4
204P/LINEAR-NEAT,e,6.5978,108.4736,356.7243,3.584133,0.1452539,0.48828316,128.2239,04/18.0/2025,2000,g 14.0,4.0
# From MPEC 2023_O39
205P/Giacobini,e,15.3005,179.6233,154.1589,3.543102,0.1477844,0.56719724,176.0594,04/18.0/2025,2000,g 13.0,4.0
# From MPC 75725
206P/Barnard-Boattini,e,33.6193,202.3434,189.5753,3.491392,0.1510797,0.55117089,227.3592,04/18.0/2025,2000,g 19.0,4.0
# From MPEC 2024-NE4
207P/NEAT,e,10.1990,198.1421,273.0221,3.885942,0.1286648,0.75851960,56.8878,04/18.0/2025,2000,g 16.0,4.0
# From MPC182889
208P/McMillan,e,4.4118,36.3351,310.7357,4.039699,0.1213893,0.37397778,28.7558,04/18.0/2025,2000,g 12.5,4.0
# From MPEC 2024-TD8
209P/LINEAR,e,21.2826,62.7661,152.4826,2.957952,0.1937392,0.67402557,53.7639,04/18.0/2025,2000,g 17.0,2.0
# From MPC105242
210P/Christensen,e,10.2820,93.8250,345.9152,3.160875,0.1753853,0.83407373,321.6400,04/18.0/2025,2000,g 13.5,4.0
# From MPEC 2024-JU4
211P/Hill,e,18.9243,117.1012,4.3461,3.548897,0.1474225,0.34446470,136.4975,04/18.0/2025,2000,g 12.5,4.0
# From MPEC 2024-GJ3
212P/NEAT,e,22.1490,97.9721,14.0552,3.902742,0.1278349,0.58674953,45.7467,04/18.0/2025,2000,g 17.0,2.0
# From MPEC 2025-GB9
213P/VanNess,e,10.4060,311.0212,6.3241,3.354906,0.1603923,0.40927757,83.7438,04/18.0/2025,2000,g 10.5,4.0
# From MPEC 2025-GB9
213P-B/Van Ness,e,10.4054,311.0176,6.3434,3.354793,0.1604004,0.40914964,83.7692,04/18.0/2025,2000,g 17.0,4.0
# From MPC 76570
213P-C/Van Ness,e,10.3541,5.4269,311.8794,3.353807,0.1604711,0.40924090,83.9219,04/18.0/2025,2000,g 17.5,4.0
# From MPC 92986
214P/LINEAR,e,15.1920,348.2122,190.1208,3.616599,0.1433024,0.48622179,133.9420,04/18.0/2025,2000,g 13.0,4.0
# From MPEC 2025-GB9
215P/NEAT,e,10.5764,56.6772,262.2705,4.335621,0.1091760,0.16495138,216.2758,04/18.0/2025,2000,g 11.0,4.0
# From MPEC 2024-N80
216P/LINEAR,e,9.0616,359.7844,151.7646,3.860156,0.1299561,0.44898865,60.6929,04/18.0/2025,2000,g 13.0,4.0
# From MPEC 2025-H10
217P/LINEAR,e,12.8655,125.3716,247.0357,3.944148,0.1258271,0.68906494,355.3514,04/18.0/2025,2000,g 12.0,4.0
# From MPEC 2022-K19
218P/LINEAR,e,2.7257,174.7155,61.3428,3.062949,0.1838630,0.63094285,301.1940,04/18.0/2025,2000,g 16.0,4.0
# From MPC182889
219P/LINEAR,e,11.5267,230.9320,107.8744,3.654713,0.1410666,0.35538458,60.4100,04/18.0/2025,2000,g 11.0,4.0
# From MPEC 2024-A43
220P/McNaught,e,8.1210,150.0926,180.5874,3.120128,0.1788321,0.50040716,284.5068,04/18.0/2025,2000,g 15.0,4.0
# From MPEC 2022-UY9
221P/LINEAR,e,11.0717,227.8550,40.6099,3.392564,0.1577292,0.51885320,189.0887,04/18.0/2025,2000,g 14.5,4.0
# From MPC 92277
222P/LINEAR,e,5.0969,6.7590,346.2773,2.896554,0.1999317,0.71477772,67.9990,04/18.0/2025,2000,g 20.0,4.0
# From MPEC 2023-A50
223P/Skiff,e,27.0061,346.7088,37.9801,4.158239,0.1162358,0.41628385,263.7880,04/18.0/2025,2000,g 12.0,4.0
# From MPEC 2024-L77
224P/LINEAR-NEAT,e,13.3021,40.0413,16.8095,3.447026,0.1540059,0.40561253,143.3536,04/18.0/2025,2000,g 15.5,4.0
# From MPEC 2024-F91
225P/LINEAR,e,21.3621,14.2097,3.9069,3.647461,0.1414875,0.63819650,87.5963,04/18.0/2025,2000,g 18.0,4.0
# From MPEC 2024-MB8
226P/Pigott-LINEAR-Kowalski,e,44.0450,54.0126,341.0318,3.765342,0.1348955,0.52889300,64.4689,04/18.0/2025,2000,g 12.5,4.0
# From MPEC 2024-R10
227P/Catalina-LINEAR,e,7.5075,36.8044,105.5895,3.437546,0.1546434,0.52768175,62.7371,04/18.0/2025,2000,g 16.5,2.0
# From MPEC 2022-HC2
228P/LINEAR,e,7.9153,30.9568,114.7867,4.162433,0.1160602,0.17734649,216.5339,04/18.0/2025,2000,g 14.1,4.0
# From MPC182889
229P/Gibbs,e,26.0969,157.8829,224.2154,3.923053,0.1268434,0.37794073,5.4823,04/18.0/2025,2000,g 13.0,4.0
# From MPEC 2025-GB9
230P/LINEAR,e,15.4719,106.9277,313.5771,3.454996,0.1534733,0.54548866,172.7045,04/18.0/2025,2000,g 13.0,4.0
# From MPEC 2023-SQ0
231P/LINEAR-NEAT,e,12.2719,132.7921,43.7776,4.060400,0.1204622,0.24008593,258.9387,04/18.0/2025,2000,g 14.5,2.0
